NORAD_CAT_ID,OBJECT_NAME,OBJECT_TYPE,EPOCH,MEAN_MOTION,ECCENTRICITY,INCLINATION,RA_OF_ASC_NODE,ARG_OF_PERICENTER,MEAN_ANOMALY,BSTAR,MEAN_MOTION_DOT,MEAN_MOTION_DDOT,TLE_LINE0,TLE_LINE1,TLE_LINE2,SEMIMAJOR_AXIS,PERIOD,APOGEE,PERIGEE,DECAYED
54792.0,STARLINK-5431,PAYLOAD,2023-02-03 14:00:01,15.08795785,0.0001333,53.2133,77.0046,71.609,29.7407,0.0027136,0.00043111,0.0,0 STARLINK-5431,1 54792U 22175AL  23034.58334491  .00043111  00000-0  27136-2 0  9994,2 54792  53.2133  77.0046 0001333  71.6090  29.7407 15.08795785  1301,6918.016,95.44,540.803,538.958,0.0
54792.0,STARLINK-5431,PAYLOAD,2023-02-04 00:00:00,15.08801689,0.0001294,53.2132,75.1319,81.2098,124.5988,0.0032585,0.00051898,0.0,0 STARLINK-5431,1 54792U 22175AL  23035.00001157  .00051898  00000-0  32585-2 0  9997,2 54792  53.2132  75.1319 0001294  81.2098 124.5988 15.08801689  1302,6917.997,95.44,540.758,538.967,0.0
54792.0,STARLINK-5431,PAYLOAD,2023-02-04 06:00:00,15.08860934,0.0001365,53.2133,74.0106,79.6338,44.8496,-0.0021335,-0.00034101,0.0,0 STARLINK-5431,1 54792U 22175AL  23035.25001157 -.00034101  00000-0 -21335-2 0  9995,2 54792  53.2133  74.0106 0001365  79.6338  44.8496 15.08860934  7258,6917.816,95.436,540.626,538.737,0.0
54792.0,STARLINK-5431,PAYLOAD,2023-02-04 14:00:01,15.08814045,0.0001305,53.2131,72.515,72.2771,63.8209,0.0022728,0.00036043,0.0,0 STARLINK-5431,1 54792U 22175AL  23035.58334491  .00036043  00000-0  22728-2 0  9993,2 54792  53.2131  72.5150 0001305  72.2771  63.8209 15.08814045  1307,6917.96,95.439,540.728,538.922,0.0
54792.0,STARLINK-5431,PAYLOAD,2023-02-04 22:00:00,15.08812119,0.0001214,53.2133,71.0167,82.9867,64.6953,0.0030652,0.00048795,0.0,0 STARLINK-5431,1 54792U 22175AL  23035.91667824  .00048795  00000-0  30652-2 0  9991,2 54792  53.2133  71.0167 0001214  82.9867  64.6953 15.08812119  1309,6917.966,95.439,540.67,538.991,0.0
54792.0,STARLINK-5431,PAYLOAD,2023-02-05 06:00:00,15.08870043,0.0001339,53.2136,69.5209,82.5501,76.7079,-0.0026385,-0.00042069,0.0,0 STARLINK-5431,1 54792U 22175AL  23036.25001157 -.00042069  00000-0 -26385-2 0  9998,2 54792  53.2136  69.5209 0001339  82.5501  76.7079 15.08870043  7400,6917.789,95.436,540.58,538.727,0.0
54792.0,STARLINK-5431,PAYLOAD,2023-02-05 14:00:01,15.08821441,0.0001318,53.2136,68.0252,77.3024,93.6395,0.001846,0.00029198,0.0,0 STARLINK-5431,1 54792U 22175AL  23036.58335648  .00029198  00000-0  18460-2 0  9990,2 54792  53.2136  68.0252 0001318  77.3024  93.6395 15.08821441  1301,6917.937,95.439,540.714,538.89,0.0
54792.0,STARLINK-5431,PAYLOAD,2023-02-05 22:00:00,15.08815307,0.0001271,53.2139,66.5268,89.135,93.3349,0.0033556,0.00053486,0.0,0 STARLINK-5431,1 54792U 22175AL  23036.91667824  .00053486  00000-0  33556-2 0  9991,2 54792  53.2139  66.5268 0001271  89.1350  93.3349 15.08815307  7514,6917.956,95.439,540.7,538.942,0.0
54792.0,STARLINK-5431,PAYLOAD,2023-02-06 11:30:09,15.08847532,0.0001445,53.2151,64.0003,89.3171,270.7986,6.3869e-05,7.29e-06,0.0,0 STARLINK-5431,1 54792U 22175AL  23037.47927644  .00000729  00000-0  63869-4 0  9996,2 54792  53.2151  64.0003 0001445  89.3171 270.7986 15.08847532  7595,6917.857,95.437,540.722,538.723,0.0
54792.0,STARLINK-5431,PAYLOAD,2023-02-07 01:48:38,15.0883537,0.0001318,53.2154,61.3219,110.8097,249.3037,5.3129e-05,5.58e-06,0.0,0 STARLINK-5431,1 54792U 22175AL  23038.07544151  .00000558  00000-0  53129-4 0  9999,2 54792  53.2154  61.3219 0001318 110.8097 249.3037 15.08835370  7689,6917.895,95.438,540.671,538.848,0.0
54792.0,STARLINK-5431,PAYLOAD,2023-02-07 11:20:56,15.08849998,0.0001457,53.2157,59.5401,97.9691,262.1466,7.0818e-05,8.4e-06,0.0,0 STARLINK-5431,1 54792U 22175AL  23038.47287191  .00000840  00000-0  70818-4 0  9999,2 54792  53.2157  59.5401 0001457  97.9691 262.1466 15.08849998  7740,6917.85,95.437,540.723,538.707,0.0
54792.0,STARLINK-5431,PAYLOAD,2023-02-08 06:25:34,15.08837911,0.0001526,53.2155,55.9688,115.6853,244.4297,-5.6715e-05,-1.19e-05,0.0,0 STARLINK-5431,1 54792U 22175AL  23039.26776348 -.00001190  00000-0 -56715-4 0  9995,2 54792  53.2155  55.9688 0001526 115.6853 244.4297 15.08837911  7860,6917.887,95.438,540.807,538.696,0.0
54792.0,STARLINK-5431,PAYLOAD,2023-02-08 12:47:06,15.08841838,0.0001718,53.2168,54.779,122.4219,237.6939,-3.6548e-05,-8.7e-06,0.0,0 STARLINK-5431,1 54792U 22175AL  23039.53271983 -.00000870  00000-0 -36548-4 0  9996,2 54792  53.2168  54.7790 0001718 122.4219 237.6939 15.08841838 10066,6917.875,95.437,540.928,538.551,0.0
54792.0,STARLINK-5431,PAYLOAD,2023-02-08 17:33:16,15.08842731,0.0001301,53.2169,53.8927,91.1411,268.973,-0.00010293,-1.926e-05,0.0,0 STARLINK-5431,1 54792U 22175AL  23039.73144293 -.00001926  00000-0 -10293-3 0  9992,2 54792  53.2169  53.8927 0001301  91.1411 268.9730 15.08842731 10095,6917.872,95.437,540.637,538.837,0.0
54792.0,STARLINK-5431,PAYLOAD,2023-02-09 01:30:13,15.08830945,0.0001415,53.217,52.4075,97.6843,262.431,-7.0878e-05,-1.415e-05,0.0,0 STARLINK-5431,1 54792U 22175AL  23040.06265206 -.00001415  00000-0 -70878-4 0  9997,2 54792  53.2170  52.4075 0001415  97.6843 262.4310 15.08830945  7983,6917.908,95.438,540.752,538.794,0.0
54792.0,STARLINK-5431,PAYLOAD,2023-02-09 11:02:31,15.08842657,0.0001165,53.2164,50.6179,95.4143,264.6982,-2.1435e-05,-6.29e-06,0.0,0 STARLINK-5431,1 54792U 22175AL  23040.46008291 -.00000629  00000-0 -21435-4 0  9991,2 54792  53.2164  50.6179 0001165  95.4143 264.6982 15.08842657 10203,6917.872,95.437,540.543,538.931,0.0
54792.0,STARLINK-5431,PAYLOAD,2023-02-09 17:24:03,15.0884071,0.0001143,53.2163,49.4282,92.7978,267.3145,-5.4389e-05,-1.153e-05,0.0,0 STARLINK-5431,1 54792U 22175AL  23040.72504529 -.00001153  00000-0 -54389-4 0  9992,2 54792  53.2163  49.4282 0001143  92.7978 267.3145 15.08840710  8087,6917.878,95.438,540.534,538.953,0.0
54792.0,STARLINK-5431,PAYLOAD,2023-02-10 01:20:59,15.08838084,8.82e-05,53.2145,47.9438,92.6971,267.4123,4.0791e-05,3.62e-06,0.0,0 STARLINK-5431,1 54792U 22175AL  23041.05624603  .00000362  00000-0  40791-4 0  9996,2 54792  53.2145  47.9438 0000882  92.6971 267.4123 15.08838084 10298,6917.886,95.438,540.361,539.141,0.0
54792.0,STARLINK-5431,PAYLOAD,2023-02-10 07:42:30,15.0885392,0.0001189,53.2171,46.7548,103.964,256.1484,0.0001715,2.444e-05,0.0,0 STARLINK-5431,1 54792U 22175AL  23041.32119075  .00002444  00000-0  17150-3 0  9993,2 54792  53.2171  46.7548 0001189 103.9640 256.1484 15.08853920  8171,6917.838,95.437,540.525,538.88,0.0
54792.0,STARLINK-5431,PAYLOAD,2023-02-11 05:57:56,15.08839385,0.0001382,53.2159,42.5876,70.6684,289.4457,2.6471e-05,1.33e-06,0.0,0 STARLINK-5431,1 54792U 22175AL  23042.24856734  .00000133  00000-0  26471-4 0  9995,2 54792  53.2159  42.5876 0001382  70.6684 289.4457 15.08839385 10472,6917.882,95.438,540.703,538.791,0.0
54792.0,STARLINK-5431,PAYLOAD,2023-02-11 07:33:19,15.08840958,0.0001677,53.2171,42.2916,74.7115,285.4063,7.1317e-05,8.47e-06,0.0,0 STARLINK-5431,1 54792U 22175AL  23042.31480549  .00000847  00000-0  71317-4 0  9991,2 54792  53.2171  42.2916 0001677  74.7115 285.4063 15.08840958  8327,6917.877,95.437,540.903,538.582,0.0
54792.0,STARLINK-5431,PAYLOAD,2023-02-11 23:27:11,15.08831575,0.0001312,53.2167,39.3197,96.6446,263.4696,-7.6104e-06,-4.09e-06,0.0,0 STARLINK-5431,1 54792U 22175AL  23042.97721194 -.00000409  00000-0 -76104-5 0  9993,2 54792  53.2167  39.3197 0001312  96.6446 263.4696 15.08831575  8420,6917.906,95.438,540.679,538.864,0.0
54792.0,STARLINK-5431,PAYLOAD,2023-02-12 08:59:29,15.08847014,0.0001478,53.2153,37.5349,95.8306,264.2855,-8.9179e-05,-1.707e-05,0.0,0 STARLINK-5431,1 54792U 22175AL  23043.37464536 -.00001707  00000-0 -89179-4 0  9999,2 54792  53.2153  37.5349 0001478  95.8306 264.2855 15.08847014  8480,6917.859,95.437,540.746,538.701,0.0
54792.0,STARLINK-5431,PAYLOAD,2023-02-12 16:56:25,15.08841935,0.0001263,53.2147,36.0509,84.8239,275.2897,-0.00016747,-2.952e-05,0.0,0 STARLINK-5431,1 54792U 22175AL  23043.70585051 -.00002952  00000-0 -16747-3 0  9995,2 54792  53.2147  36.0509 0001263  84.8239 275.2897 15.08841935  8530,6917.874,95.437,540.613,538.866,0.0
54792.0,STARLINK-5431,PAYLOAD,2023-02-12 23:17:58,15.08834435,0.0001518,53.2175,34.8588,89.6344,270.4822,-0.00010717,-1.993e-05,0.0,0 STARLINK-5431,1 54792U 22175AL  23043.97081809 -.00001993  00000-0 -10717-3 0  9991,2 54792  53.2175  34.8588 0001518  89.6344 270.4822 15.08834435  8573,6917.897,95.438,540.813,538.712,0.0
54792.0,STARLINK-5431,PAYLOAD,2023-02-13 08:50:16,15.08843947,0.0001519,53.2149,33.0746,97.7332,262.3833,-2.8278e-05,-7.38e-06,0.0,0 STARLINK-5431,1 54792U 22175AL  23044.36824850 -.00000738  00000-0 -28278-4 0  9994,2 54792  53.2149  33.0746 0001519  97.7332 262.3833 15.08843947  8636,6917.868,95.437,540.784,538.683,0.0
54792.0,STARLINK-5431,PAYLOAD,2023-02-13 16:47:13,15.08835639,0.0001614,53.2151,31.5869,94.5104,265.6072,-8.694e-05,-1.671e-05,0.0,0 STARLINK-5431,1 54792U 22175AL  23044.69945627 -.00001671  00000-0 -86940-4 0  9993,2 54792  53.2151  31.5869 0001614  94.5104 265.6072 15.08835639  8681,6917.894,95.438,540.875,538.642,0.0
54792.0,STARLINK-5431,PAYLOAD,2023-02-14 08:41:03,15.08842306,0.0001285,53.2156,28.6117,93.0021,267.1118,7.1432e-05,8.49e-06,0.0,0 STARLINK-5431,1 54792U 22175AL  23045.36184888  .00000849  00000-0  71432-4 0  9996,2 54792  53.2156  28.6117 0001285  93.0021 267.1118 15.08842306  8783,6917.873,95.437,540.627,538.849,0.0
54792.0,STARLINK-5431,PAYLOAD,2023-02-15 03:45:42,15.08830466,0.0001505,53.2159,25.0432,91.2413,268.8752,2.8998e-05,1.73e-06,0.0,0 STARLINK-5431,1 54792U 22175AL  23046.15674055  .00000173  00000-0  28998-4 0  9993,2 54792  53.2159  25.0432 0001505  91.2413 268.8752 15.08830466  8907,6917.91,95.438,540.816,538.733,0.0
54792.0,STARLINK-5431,PAYLOAD,2023-02-15 05:21:04,15.08846923,0.000129,53.2167,24.7459,78.5296,281.5841,4.9531e-05,5.01e-06,0.0,0 STARLINK-5431,1 54792U 22175AL  23046.22297102  .00000501  00000-0  49531-4 0  9996,2 54792  53.2167  24.7459 0001290  78.5296 281.5841 15.08846923  8916,6917.859,95.437,540.617,538.832,0.0
